{
    "links": {
        "self": "http://www.neowsapp.com/rest/v1/neo/3401384?api_key=iIulBulltgU6a56xZRHN4H3l9WmuAYTsLGpBGhQ2"
    },
    "id": "3401384",
    "neo_reference_id": "3401384",
    "name": "(2008 CK)",
    "designation": "2008 CK",
    "nasa_jpl_url": "http://ssd.jpl.nasa.gov/sbdb.cgi?sstr=3401384",
    "absolute_magnitude_h": 26.2,
    "estimated_diameter": {
        "kilometers": {
            "estimated_diameter_min": 0.0152951935,
            "estimated_diameter_max": 0.0342010925
        },
        "meters": {
            "estimated_diameter_min": 15.2951935344,
            "estimated_diameter_max": 34.201092472
        },
        "miles": {
            "estimated_diameter_min": 0.0095039897,
            "estimated_diameter_max": 0.021251567
        },
        "feet": {
            "estimated_diameter_min": 50.1810827555,
            "estimated_diameter_max": 112.2083122258
        }
    },
    "is_potentially_hazardous_asteroid": false,
    "close_approach_data": [
        {
            "close_approach_date": "2008-01-30",
            "close_approach_date_full": "2008-Jan-30 21:57",
            "epoch_date_close_approach": 1201730220000,
            "relative_velocity": {
                "kilometers_per_second": "8.3430462951",
                "kilometers_per_hour": "30034.9666623916",
                "miles_per_hour": "18662.5602575288"
            },
            "miss_distance": {
                "astronomical": "0.024549675",
                "lunar": "9.549823575",
                "kilometers": "3672579.08919225",
                "miles": "2282034.82666305"
            },
            "orbiting_body": "Earth"
        }
    ],
    "orbital_data": {
        "orbit_id": "10",
        "orbit_determination_date": "2017-04-06 09:04:34",
        "first_observation_date": "2008-02-02",
        "last_observation_date": "2008-02-16",
        "data_arc_in_days": 14,
        "observations_used": 27,
        "orbit_uncertainty": "8",
        "minimum_orbit_intersection": ".0202447",
        "jupiter_tisserand_invariant": "3.567",
        "epoch_osculation": "2454499.5",
        "eccentricity": ".5239323684321598",
        "semi_major_axis": "2.08343234483309",
        "inclination": "7.270868789473623",
        "ascending_node_longitude": "131.4972542641029",
        "orbital_period": "1098.417719304395",
        "perihelion_distance": ".9918547019365207",
        "perihelion_argument": "341.3006784653386",
        "aphelion_distance": "3.175009987729659",
        "perihelion_time": "2454482.610400693763",
        "mean_anomaly": "5.535467648952185",
        "mean_motion": ".3277441666071998",
        "equinox": "J2000",
        "orbit_class": {
            "orbit_class_type": "APO",
            "orbit_class_description": "Near-Earth asteroid orbits which cross the Earth’s orbit similar to that of 1862 Apollo",
            "orbit_class_range": "a (semi-major axis) > 1.0 AU; q (perihelion) < 1.017 AU"
        }
    },
    "is_sentry_object": false
}